start=new Date('2022-10-17T00:00:00.000Z').valueOf();
sats=[{"RA_OF_ASC_NODE":"230.0158","EPOCH":"2022-10-16T06:45:46.154016","ARG_OF_PERICENTER":"58.2218","BSTAR":"-0.00002676100000","INCLINATION":"53.0563","PERIOD":"95.592","GP_ID":"215303058","OBJECT_NAME":"STARLINK-2077","MEAN_MOTION":"15.06395064","MEAN_MOTION_DOT":"-0.00000680","LAUNCH_DATE":"2021-01-20","DECAY_DATE":null,"TLE_LINE2":"2 47363  53.0563 230.0158 0001706  58.2218 301.8937 15.06395064 96089","EPHEMERIS_TYPE":"0","OBJECT_TYPE":"PAYLOAD","PERIAPSIS":"546.047","APOAPSIS":"548.410","ECCENTRICITY":"0.00017060","MEAN_ELEMENT_THEORY":"SGP4","NORAD_CAT_ID":"47363","ELEMENT_SET_NO":"999","FILE":"3617121","TLE_LINE1":"1 47363U 21005Q   22289.28178419 -.00000680  00000-0 -26761-4 0  9996","SITE":"AFETR","SEMIMAJOR_AXIS":"6925.364","CLASSIFICATION_TYPE":"U","REF_FRAME":"TEME","RCS_SIZE":"LARGE","MEAN_ANOMALY":"301.8937","MEAN_MOTION_DDOT":"0.0000000000000","TIME_SYSTEM":"UTC","OBJECT_ID":"2021-005Q","CENTER_NAME":"EARTH","COUNTRY_CODE":"US","REV_AT_EPOCH":"9608"},{"INCLINATION":"53.0559","OBJECT_NAME":"STARLINK-2081","GP_ID":"215345461","PERIOD":"95.593","RA_OF_ASC_NODE":"228.7277","ARG_OF_PERICENTER":"96.1127","BSTAR":"-0.00010631000000","EPOCH":"2022-10-16T13:45:05.841792","TLE_LINE2":"2 47366  53.0559 228.7277 0001341  96.1127 264.0015 15.06388526 96125","PERIAPSIS":"546.320","OBJECT_TYPE":"PAYLOAD","EPHEMERIS_TYPE":"0","MEAN_MOTION_DOT":"-0.00001864","MEAN_MOTION":"15.06388526","DECAY_DATE":null,"LAUNCH_DATE":"2021-01-20","TLE_LINE1":"1 47366U 21005T   22289.57298428 -.00001864  00000-0 -10631-3 0  9997","FILE":"3617955","ELEMENT_SET_NO":"999","NORAD_CAT_ID":"47366","CLASSIFICATION_TYPE":"U","SITE":"AFETR","SEMIMAJOR_AXIS":"6925.384","APOAPSIS":"548.177","ECCENTRICITY":"0.00013410","MEAN_ELEMENT_THEORY":"SGP4","CENTER_NAME":"EARTH","REV_AT_EPOCH":"9612","COUNTRY_CODE":"US","MEAN_MOTION_DDOT":"0.0000000000000","MEAN_ANOMALY":"264.0015","REF_FRAME":"TEME","RCS_SIZE":"LARGE","OBJECT_ID":"2021-005T","TIME_SYSTEM":"UTC"},{"MEAN_ANOMALY":"277.1193","MEAN_MOTION_DDOT":"0.0000000000000","REF_FRAME":"TEME","RCS_SIZE":"LARGE","OBJECT_ID":"2021-005U","TIME_SYSTEM":"UTC","CENTER_NAME":"EARTH","REV_AT_EPOCH":"9612","COUNTRY_CODE":"US","ECCENTRICITY":"0.00015570","APOAPSIS":"548.338","MEAN_ELEMENT_THEORY":"SGP4","FILE":"3617121","TLE_LINE1":"1 47367U 21005U   22289.53242946 -.00005978  00000-0 -38288-3 0  9996","NORAD_CAT_ID":"47367","ELEMENT_SET_NO":"999","CLASSIFICATION_TYPE":"U","SITE":"AFETR","SEMIMAJOR_AXIS":"6925.395","MEAN_MOTION_DOT":"-0.00005978","MEAN_MOTION":"15.06384814","DECAY_DATE":null,"LAUNCH_DATE":"2021-01-20","TLE_LINE2":"2 47367  53.0529 228.8895 0001557  82.9973 277.1193 15.06384814 96129","PERIAPSIS":"546.182","OBJECT_TYPE":"PAYLOAD","EPHEMERIS_TYPE":"0","RA_OF_ASC_NODE":"228.8895","BSTAR":"-0.00038288000000","ARG_OF_PERICENTER":"82.9973","EPOCH":"2022-10-16T12:46:41.905344","INCLINATION":"53.0529","GP_ID":"215301556","OBJECT_NAME":"STARLINK-2082","PERIOD":"95.593"},{"MEAN_ELEMENT_THEORY":"SGP4","APOAPSIS":"548.109","ECCENTRICITY":"0.00012670","SEMIMAJOR_AXIS":"6925.367","SITE":"AFETR","CLASSIFICATION_TYPE":"U","ELEMENT_SET_NO":"999","NORAD_CAT_ID":"47368","TLE_LINE1":"1 47368U 21005V   22289.85679172 -.00000990  00000-0 -47595-4 0  9998","FILE":"3617380","TIME_SYSTEM":"UTC","OBJECT_ID":"2021-005V","REF_FRAME":"TEME","RCS_SIZE":"LARGE","MEAN_MOTION_DDOT":"0.0000000000000","MEAN_ANOMALY":"271.6888","COUNTRY_CODE":"US","REV_AT_EPOCH":"9711","CENTER_NAME":"EARTH","EPOCH":"2022-10-16T20:33:46.804608","ARG_OF_PERICENTER":"88.4246","BSTAR":"-0.00004759500000","RA_OF_ASC_NODE":"227.4416","PERIOD":"95.593","GP_ID":"215311631","OBJECT_NAME":"STARLINK-2084","INCLINATION":"53.0563","LAUNCH_DATE":"2021-01-20","DECAY_DATE":null,"MEAN_MOTION":"15.06394099","MEAN_MOTION_DOT":"-0.00000990","EPHEMERIS_TYPE":"0","PERIAPSIS":"546.354","OBJECT_TYPE":"PAYLOAD","TLE_LINE2":"2 47368  53.0563 227.4416 0001267  88.4246 271.6888 15.06394099 97110"},{"COUNTRY_CODE":"US","REV_AT_EPOCH":"9644","CENTER_NAME":"EARTH","TIME_SYSTEM":"UTC","OBJECT_ID":"2021-005W","RCS_SIZE":"LARGE","REF_FRAME":"TEME","MEAN_MOTION_DDOT":"0.0000000000000","MEAN_ANOMALY":"266.3232","SEMIMAJOR_AXIS":"6925.410","SITE":"AFETR","CLASSIFICATION_TYPE":"U","NORAD_CAT_ID":"47369","ELEMENT_SET_NO":"999","TLE_LINE1":"1 47369U 21005W   22289.79504278 -.00003489  00000-0 -21557-3 0  9991","FILE":"3617955","MEAN_ELEMENT_THEORY":"SGP4","ECCENTRICITY":"0.00012010","APOAPSIS":"548.107","EPHEMERIS_TYPE":"0","PERIAPSIS":"546.444","OBJECT_TYPE":"PAYLOAD","TLE_LINE2":"2 47369  53.0531 207.7039 0001201  93.7894 266.3232 15.06379816 96443","LAUNCH_DATE":"2021-01-20","DECAY_DATE":null,"MEAN_MOTION":"15.06379816","MEAN_MOTION_DOT":"-0.00003489","PERIOD":"95.593","GP_ID":"215345711","OBJECT_NAME":"STARLINK-2085","INCLINATION":"53.0531","EPOCH":"2022-10-16T19:04:51.696192","ARG_OF_PERICENTER":"93.7894","BSTAR":"-0.00021557000000","RA_OF_ASC_NODE":"207.7039"},{"CENTER_NAME":"EARTH","REV_AT_EPOCH":"9672","COUNTRY_CODE":"US","MEAN_MOTION_DDOT":"0.0000000000000","MEAN_ANOMALY":"265.4231","REF_FRAME":"TEME","RCS_SIZE":"LARGE","OBJECT_ID":"2021-005X","TIME_SYSTEM":"UTC","TLE_LINE1":"1 47370U 21005X   22289.75359881 -.00001390  00000-0 -74465-4 0  9993","FILE":"3617955","NORAD_CAT_ID":"47370","ELEMENT_SET_NO":"999","CLASSIFICATION_TYPE":"U","SITE":"AFETR","SEMIMAJOR_AXIS":"6925.385","APOAPSIS":"548.217","ECCENTRICITY":"0.00013970","MEAN_ELEMENT_THEORY":"SGP4","TLE_LINE2":"2 47370  53.0546 187.9227 0001397  94.6917 265.4231 15.06388189 96724","PERIAPSIS":"546.282","OBJECT_TYPE":"PAYLOAD","EPHEMERIS_TYPE":"0","MEAN_MOTION_DOT":"-0.00001390","MEAN_MOTION":"15.06388189","DECAY_DATE":null,"LAUNCH_DATE":"2021-01-20","INCLINATION":"53.0546","GP_ID":"215345961","OBJECT_NAME":"STARLINK-2086","PERIOD":"95.593","RA_OF_ASC_NODE":"187.9227","BSTAR":"-0.00007446500000","ARG_OF_PERICENTER":"94.6917","EPOCH":"2022-10-16T18:05:10.937184"},{"EPHEMERIS_TYPE":"0","PERIAPSIS":"545.930","OBJECT_TYPE":"PAYLOAD","TLE_LINE2":"2 47371  53.0547 229.7731 0001939  64.1908 295.9281 15.06380735 96097","LAUNCH_DATE":"2021-01-20","DECAY_DATE":null,"MEAN_MOTION":"15.06380735","MEAN_MOTION_DOT":"-0.00003004","PERIOD":"95.593","OBJECT_NAME":"STARLINK-2088","GP_ID":"215302057","INCLINATION":"53.0547","EPOCH":"2022-10-16T08:10:43.675392","BSTAR":"-0.00018293000000","ARG_OF_PERICENTER":"64.1908","RA_OF_ASC_NODE":"229.7731","COUNTRY_CODE":"US","REV_AT_EPOCH":"9609","CENTER_NAME":"EARTH","TIME_SYSTEM":"UTC","OBJECT_ID":"2021-005Y","REF_FRAME":"TEME","RCS_SIZE":"LARGE","MEAN_MOTION_DDOT":"0.0000000000000","MEAN_ANOMALY":"295.9281","SITE":"AFETR","SEMIMAJOR_AXIS":"6925.408","CLASSIFICATION_TYPE":"U","NORAD_CAT_ID":"47371","ELEMENT_SET_NO":"999","TLE_LINE1":"1 47371U 21005Y   22289.34078328 -.00003004  00000-0 -18293-3 0  9993","FILE":"3617121","MEAN_ELEMENT_THEORY":"SGP4","APOAPSIS":"548.615","ECCENTRICITY":"0.00019390"},{"RA_OF_ASC_NODE":"223.0247","BSTAR":"-0.00006074800000","ARG_OF_PERICENTER":"74.2728","EPOCH":"2022-10-16T19:12:14.089248","INCLINATION":"53.0547","GP_ID":"215346463","OBJECT_NAME":"STARLINK-2089","PERIOD":"95.593","MEAN_MOTION_DOT":"-0.00001186","MEAN_MOTION":"15.06387835","DECAY_DATE":null,"LAUNCH_DATE":"2021-01-20","TLE_LINE2":"2 47372  53.0547 223.0247 0001511  74.2728 285.8427 15.06387835 96228","PERIAPSIS":"546.204","OBJECT_TYPE":"PAYLOAD","EPHEMERIS_TYPE":"0","ECCENTRICITY":"0.00015110","APOAPSIS":"548.297","MEAN_ELEMENT_THEORY":"SGP4","TLE_LINE1":"1 47372U 21005Z   22289.80016307 -.00001186  00000-0 -60748-4 0  9996","FILE":"3617955","NORAD_CAT_ID":"47372","ELEMENT_SET_NO":"999","CLASSIFICATION_TYPE":"U","SITE":"AFETR","SEMIMAJOR_AXIS":"6925.386","MEAN_MOTION_DDOT":"0.0000000000000","MEAN_ANOMALY":"285.8427","RCS_SIZE":"LARGE","REF_FRAME":"TEME","OBJECT_ID":"2021-005Z","TIME_SYSTEM":"UTC","CENTER_NAME":"EARTH","REV_AT_EPOCH":"9622","COUNTRY_CODE":"US"},{"OBJECT_ID":"2021-005AA","TIME_SYSTEM":"UTC","MEAN_MOTION_DDOT":"0.0000000000000","MEAN_ANOMALY":"281.8759","REF_FRAME":"TEME","RCS_SIZE":"LARGE","REV_AT_EPOCH":"9616","COUNTRY_CODE":"US","CENTER_NAME":"EARTH","MEAN_ELEMENT_THEORY":"SGP4","ECCENTRICITY":"0.00015740","APOAPSIS":"548.348","CLASSIFICATION_TYPE":"U","SITE":"AFETR","SEMIMAJOR_AXIS":"6925.393","TLE_LINE1":"1 47373U 21005AA  22289.80150943 -.00002067  00000-0 -11996-3 0  9991","FILE":"3617412","NORAD_CAT_ID":"47373","ELEMENT_SET_NO":"999","DECAY_DATE":null,"LAUNCH_DATE":"2021-01-20","MEAN_MOTION_DOT":"-0.00002067","MEAN_MOTION":"15.06385427","PERIAPSIS":"546.168","OBJECT_TYPE":"PAYLOAD","EPHEMERIS_TYPE":"0","TLE_LINE2":"2 47373  53.0546 227.6917 0001574  78.2407 281.8759 15.06385427 96161","ARG_OF_PERICENTER":"78.2407","BSTAR":"-0.00011996000000","EPOCH":"2022-10-16T19:14:10.414752","RA_OF_ASC_NODE":"227.6917","GP_ID":"215312048","OBJECT_NAME":"STARLINK-2092","PERIOD":"95.593","INCLINATION":"53.0546"},{"INCLINATION":"53.0539","PERIOD":"95.592","OBJECT_NAME":"STARLINK-2093","GP_ID":"215312047","RA_OF_ASC_NODE":"227.5888","EPOCH":"2022-10-16T19:44:38.704416","ARG_OF_PERICENTER":"72.9291","BSTAR":"-0.00002763400000","TLE_LINE2":"2 47374  53.0539 227.5888 0001718  72.9291 287.1886 15.06407828 96162","EPHEMERIS_TYPE":"0","PERIAPSIS":"546.000","OBJECT_TYPE":"PAYLOAD","MEAN_MOTION":"15.06407828","MEAN_MOTION_DOT":"-0.00000693","LAUNCH_DATE":"2021-01-20","DECAY_DATE":null,"NORAD_CAT_ID":"47374","ELEMENT_SET_NO":"999","FILE":"3617412","TLE_LINE1":"1 47374U 21005AB  22289.82267019 -.00000693  00000-0 -27634-4 0  9997","SITE":"AFETR","SEMIMAJOR_AXIS":"6925.325","CLASSIFICATION_TYPE":"U","APOAPSIS":"548.379","ECCENTRICITY":"0.00017180","MEAN_ELEMENT_THEORY":"SGP4","CENTER_NAME":"EARTH","COUNTRY_CODE":"US","REV_AT_EPOCH":"9616","RCS_SIZE":"LARGE","REF_FRAME":"TEME","MEAN_ANOMALY":"287.1886","MEAN_MOTION_DDOT":"0.0000000000000","TIME_SYSTEM":"UTC","OBJECT_ID":"2021-005AB"}];
